satname,norad_id,inclination_deg,eccentricity,mean_motion_rev_per_day,perigee_km,apogee_km,l1,l2
STARLINK-1202,45183,53.1611,0.0001587,15.30187912,474.1635295446986,476.3387949473963,1 45183U 20012F   26082.40462308 -.00001077  00000+0 -24237-4 0  9999,2 45183  53.1611 335.5492 0001587  86.3688 273.7494 15.30187912337052
STARLINK-1216,45185,53.1599,0.0001496,15.30185343,474.2335649120996,476.2841009453123,1 45185U 20012H   26082.39513484 -.00001619  00000+0 -42553-4 0  9994,2 45185  53.1599 335.5717 0001496  92.3719 267.7453 15.30185343336996
STARLINK-1225,45187,53.1583,0.0001034,15.30227312,474.4248937513039,475.84215009523723,1 45187U 20012K   26082.00014679  .00012830  00000+0  44419-3 0  9993,2 45187  53.1583 337.8456 0001034  99.5017 260.6100 15.30227312336976
STARLINK-1230,45189,53.1589,0.0001355,15.30196308,474.29746238888765,476.15472378711456,1 45189U 20012M   26082.40153264 -.00000312  00000+0  15919-5 0  9991,2 45189  53.1589 336.0401 0001355  98.4832 261.6322 15.30196308334261
STARLINK-1234,45190,53.0424,0.0005492,15.65045603,369.3998255140132,376.81539259259716,1 45190U 20012N   26082.45493009  .00057371  00000+0  57352-3 0  9993,2 45190  53.0424 257.8446 0005492 337.9867  22.0911 15.65045603338035
STARLINK-1269,45197,53.1579,0.0001338,15.30196429,474.30875186886715,476.14271173589714,1 45197U 20012V   26082.39835242 -.00001546  00000+0 -40069-4 0  9995,2 45197  53.1579 335.9157 0001338  92.0778 268.0376 15.30196429337015
STARLINK-1154,45198,53.0474,0.0006187,15.48280112,417.5500371699436,425.9642261684712,1 45198U 20012W   26082.31495807  .00141897  00000+0  26038-2 0  9997,2 45198  53.0474 304.8894 0006187 136.6236 223.5259 15.48280112337404
STARLINK-1199,45201,53.1588,0.0001532,15.30184466,474.2115108929047,476.3113921784552,1 45201U 20012Z   26082.36764218 -.00001808  00000+0 -48955-4 0  9995,2 45201  53.1588 320.3045 0001532  91.8915 268.2261 15.30184466337250
STARLINK-1209,45206,53.0447,0.0007627,15.53476912,401.40896870796405,411.75838162586297,1 45206U 20012AE  26082.51699052  .00066168  00000+0  10226-2 0  9996,2 45206  53.0447 266.8554 0007627 316.6143  43.4266 15.53476912337061
STARLINK-1231,45212,53.044,0.0004205,15.22203748,496.3029735321652,502.0868096529948,1 45212U 20012AL  26082.34077235  .00019060  00000+0  83120-3 0  9990,2 45212  53.0440 313.0363 0004205 140.4230 219.7073 15.22203748337305
STARLINK-1271,45217,53.1576,0.0001272,15.30193735,474.36202688121193,476.10552440653646,1 45217U 20012AR  26082.36555750  .00003615  00000+0  13415-3 0  9999,2 45217  53.1576 320.4383 0001272  78.3762 281.7381 15.30193735337253
STARLINK-1191,45222,53.1597,5.07e-05,15.31236559,471.7745290297689,472.46914527585614,1 45222U 20012AW  26082.31589924  .00029655  00000+0  97755-3 0  9991,2 45222  53.1597 295.4868 0000507 130.7620 229.3425 15.31236559337606
STARLINK-1212,45223,53.0481,0.0004811,15.54542406,400.22048749005626,406.74576237426663,1 45223U 20012AX  26082.55442073  .00044974  00000+0  67316-3 0  9992,2 45223  53.0481 283.2119 0004811 174.3634 185.7431 15.54542406337791
STARLINK-1215,45225,53.1602,0.0001612,15.3018288,474.1614185362487,476.37095572377984,1 45225U 20012AZ  26082.30649464 -.00001598  00000+0 -41853-4 0  9996,2 45225  53.1602 295.0556 0001612  88.9648 271.1537 15.30182880337568
STARLINK-1221,45227,53.0653,0.0003566,15.42420631,436.5366178152244,441.3985768140283,1 45227U 20012BB  26082.06731507  .00023275  00000+0  53789-3 0  9995,2 45227  53.0653 206.1983 0003566  65.9663 294.1715 15.42420631338773
STARLINK-1222,45228,53.0546,0.0003582,15.50421541,413.060906851877,417.9278643765301,1 45228U 20012BC  26082.54863674  .00022846  00000+0  40155-3 0  9996,2 45228  53.0546 276.3207 0003582 128.5245 231.6085 15.50421541337778
STARLINK-1226,45229,53.1581,7.53e-05,15.31278804,471.48003136998796,472.5116613766522,1 45229U 20012BD  26082.33335647  .00020385  00000+0  67564-3 0  9997,2 45229  53.1581 295.1929 0000753 131.1444 239.9285 15.31278804  5829
STARLINK-1227,45230,53.1568,3.77e-05,15.31924342,469.8131475574919,470.32950246519795,1 45230U 20012BE  26082.28147210  .00030345  00000+0  97877-3 0  9997,2 45230  53.1568 295.6157 0000377 118.9500 241.1539 15.31924342337619
STARLINK-1246,45235,53.1603,0.0001537,15.3018601,474.2034747224461,476.31020798927966,1 45235U 20012BK  26082.40778512 -.00001012  00000+0 -22049-4 0  9992,2 45235  53.1603 335.5300 0001537  88.6970 271.4207 15.30186010337070
STARLINK-1270,45237,53.0471,0.0002581,15.49086551,417.6425119927799,421.1513990206122,1 45237U 20012BM  26082.52656469  .00038714  00000+0  70605-3 0  9990,2 45237  53.0471 281.3420 0002581 165.8266 194.2814 15.49086551337818
STARLINK-1279,45360,53.043,0.0002248,15.59644581,387.16374039796847,390.2061035340839,1 45360U 20019A   26082.10095902  .00081260  00000+0  99678-3 0  9992,2 45360  53.0430  33.5105 0002248 134.3742 225.7454 15.59644581332760
STARLINK-1301,45361,53.0431,5.18e-05,15.66526025,368.5040028653366,369.20299108082327,1 45361U 20019B   26082.12865175  .00075492  00000+0  70853-3 0  9996,2 45361  53.0431  38.0386 0000518 196.3946 163.7052 15.66526025332715
STARLINK-1262,45366,53.1576,0.0001212,15.29362953,476.88455140498445,478.5464100463123,1 45366U 20019G   26082.33011614  .00000247  00000+0  20900-4 0  9990,2 45366  53.1576 101.8297 0001212  78.2566 281.8570 15.29362953331846
STARLINK-1273,45367,53.0514,0.000408,15.46072393,425.45188177070395,431.0058763280076,1 45367U 20019H   26082.31077141  .00053557  00000+0  10787-2 0  9998,2 45367  53.0514  89.9184 0004080  49.0640 311.0719 15.46072393332009
STARLINK-1277,45369,53.0507,0.0005835,15.51065326,409.65142601295247,417.5773999118792,1 45369U 20019K   26082.29880666  .00060611  00000+0  10232-2 0  9995,2 45369  53.0507  87.3060 0005835  55.1859 304.9698 15.51065326332042
STARLINK-1281,45370,53.1593,0.0001423,15.30200256,474.23907315886663,476.1895369402837,1 45370U 20019L   26082.45285156  .00000866  00000+0  41359-4 0  9990,2 45370  53.1593 101.3566 0001423  93.2245 266.8918 15.30200256331869
STARLINK-1300,45374,53.1587,0.0001388,15.30182187,474.3170036928859,476.21950899204603,1 45374U 20019Q   26082.58335647  .00008148  00000+0  28708-3 0  9992,2 45374  53.1587 100.7603 0001388  77.6249 159.8282 15.30182187  5686
STARLINK-1302,45375,53.0521,0.0003818,15.55922604,396.8843675761118,402.05974985334706,1 45375U 20019R   26082.26851546  .00075825  00000+0  10702-2 0  9999,2 45375  53.0521  86.1292 0003818   5.0225 355.0823 15.55922604332052
STARLINK-1304,45376,53.0502,0.0003789,15.50382143,413.0353268517547,418.18362793232245,1 45376U 20019S   26082.32000515  .00055209  00000+0  95658-3 0  9997,2 45376  53.0502  84.1483 0003789  38.0712 322.0564 15.50382143332088
STARLINK-1305,45377,53.0449,0.0003609,15.55462126,398.36309688675374,403.25614055614733,1 45377U 20019T   26082.21275153  .00063455  00000+0  91352-3 0  9997,2 45377  53.0449  66.9336 0003609 118.7443 241.3930 15.55462126332324
STARLINK-1319,45379,53.0446,0.0003026,15.66802519,366.01831252643206,370.10111077632337,1 45379U 20019V   26082.45580227  .00058516  00000+0  54534-3 0  9999,2 45379  53.0446  62.0440 0003026  88.4025 271.7337 15.66802519332412
STARLINK-1266,45383,53.0506,0.0005114,15.47456465,420.6910860377129,427.64848541815536,1 45383U 20019Z   26082.22973293  .00057579  00000+0  11043-2 0  9993,2 45383  53.0506  68.3280 0005114  61.9766 298.1758 15.47456465332293
STARLINK-1267,45384,53.0507,0.0001957,15.51982482,409.60976876069435,412.26701286865864,1 45384U 20019AA  26082.21652178  .00067359  00000+0  10993-2 0  9999,2 45384  53.0507  62.0030 0001957 344.5726  15.5223 15.51982482332382
STARLINK-1272,45386,53.0453,0.0002599,15.58351466,390.6681259358047,394.1874655166239,1 45386U 20019AC  26082.14281473  .00047592  00000+0  61828-3 0  9990,2 45386  53.0453  44.4791 0002599 138.8338 221.2870 15.58351466332628
STARLINK-1274,45387,53.0286,0.0002206,15.49176241,417.63511141857634,420.63406764387764,1 45387U 20019AD  26082.14939908  .00058431  00000+0  10556-2 0  9999,2 45387  53.0286  38.4887 0002206 263.4946  96.5811 15.49176241332700
STARLINK-1280,45388,53.0432,0.0001846,15.67135555,365.8587386025565,368.3490815465566,1 45388U 20019AE  26082.17785318  .00070125  00000+0  64294-3 0  9990,2 45388  53.0432  56.1518 0001846 100.1827 259.9396 15.67135555332454
STARLINK-1283,45389,53.0448,9.35e-05,15.62842807,378.81811577941335,380.08178453909204,1 45389U 20019AF  26082.58335647  .00020253  00000+0  22568-3 0  9997,2 45389  53.0448  42.4667 0000935  85.0528 336.2375 15.62842807  5679
STARLINK-1284,45390,53.0491,0.000513,15.54015916,401.53499272481713,408.49450641987823,1 45390U 20019AG  26082.19277382  .00064761  00000+0  98239-3 0  9997,2 45390  53.0491  65.8971 0005130  67.5470 292.6082 15.54015916332328
STARLINK-1297,45395,53.0474,0.0005936,15.56655982,393.32123695880546,401.36508700711056,1 45395U 20019AM  26082.50338715  .00055105  00000+0  76045-3 0  9998,2 45395  53.0474  63.8636 0005936  69.3568 290.8079 15.56655982331568
STARLINK-1307,45397,53.0554,0.0002975,15.5071105,412.62795043664846,416.66965799015543,1 45397U 20019AP  26082.22015209  .00032068  00000+0  55414-3 0  9999,2 45397  53.0554  65.7872 0002975  66.7061 293.4260 15.50711050332151
STARLINK-1255,45399,53.0428,0.0001474,15.54240826,403.3606126101713,405.3600928297519,1 45399U 20019AR  26082.13802803  .00058513  00000+0  88211-3 0  9999,2 45399  53.0428  37.8920 0001474  66.9996 293.1169 15.54240826332527
STARLINK-1260,45404,53.1621,0.0001283,15.30446277,473.60063855957014,475.35902003796855,1 45404U 20019AW  26082.21759023  .00036350  00000+0  12241-2 0  9994,2 45404  53.1621  66.4010 0001283  98.0489 262.0658 15.30446277332046
STARLINK-1263,45405,53.1615,0.0001531,15.30192489,474.18824436785417,476.28674763852996,1 45405U 20019AX  26082.27161914 -.00001132  00000+0 -26089-4 0  9996,2 45405  53.1615  66.1841 0001531  88.4865 271.6311 15.30192489332052
